[{"OBJECT_NAME":"STARLINK-6190","OBJECT_ID":"2023-078H","EPOCH":"2026-03-09T22:48:45.792000","MEAN_MOTION":14.98324844,"ECCENTRICITY":0.0002323,"INCLINATION":70.0012,"RA_OF_ASC_NODE":3.8987,"ARG_OF_PERICENTER":268.2957,"MEAN_ANOMALY":91.7936,"EPHEMERIS_TYPE":0,"CLASSIFICATION_TYPE":"U","NORAD_CAT_ID":56774,"ELEMENT_SET_NO":999,"REV_AT_EPOCH":15222,"BSTAR":-3.4467296e-5,"MEAN_MOTION_DOT":-5.04e-6,"MEAN_MOTION_DDOT":0},{"OBJECT_NAME":"TIROS 6","OBJECT_ID":"1962-047A","EPOCH":"2026-03-09T22:32:46.825440","MEAN_MOTION":14.95739722,"ECCENTRICITY":0.00128175,"INCLINATION":58.3026,"RA_OF_ASC_NODE":287.9356,"ARG_OF_PERICENTER":61.4296,"MEAN_ANOMALY":298.8041,"EPHEMERIS_TYPE":0,"CLASSIFICATION_TYPE":"U","NORAD_CAT_ID":397,"ELEMENT_SET_NO":999,"REV_AT_EPOCH":39747,"BSTAR":0.00017529326,"MEAN_MOTION_DOT":1.739e-5,"MEAN_MOTION_DDOT":0}]
